satname,norad_id,inclination_deg,eccentricity,mean_motion_rev_per_day,perigee_km,apogee_km,l1,l2
STARLINK-1470,45772,53.0524,0.0006479,15.21620089,496.49647564345014,505.4104010334486,1 45772U 20038AU  25359.67402749  .00049325  00000+0  21557-2 0  9995,2 45772  53.0524 156.1916 0006479 117.2424 242.9233 15.21620089305784
STARLINK-1482,45773,53.0551,0.0001298,15.06391964,546.3372737906684,548.1351006700743,1 45773U 20038AV  25359.67562453 -.00000370  00000+0 -59438-5 0  9996,2 45773  53.0551 168.8774 0001298  88.8977 271.2161 15.06391964305603
STARLINK-1496,45780,53.0534,0.0001687,15.2578748,487.2634114263283,489.58018836541305,1 45780U 20038BC  25359.91668980  .01982054  00000+0  69133-1 0  9999,2 45780  53.0534 167.1235 0001687  79.1030 317.4333 15.25787480  5582
STARLINK-1497,45781,53.0318,0.0002722,15.72980208,348.5533797751377,352.21638708847786,1 45781U 20038BD  25359.91668980  .00222773  00000+0  15642-2 0  9991,2 45781  53.0318  90.8011 0002722   2.9710 198.4895 15.72980208  6011
STARLINK-1510,45784,53.02,0.0007109,16.02484241,262.81712270771186,272.265948449598,1 45784U 20038BG  25359.61644771  .00517278  13217-3  85510-3 0  9990,2 45784  53.0200  59.9598 0007109 358.0177   2.0824 16.02484241307124
STARLINK-1513,45786,53.0556,0.0001475,15.06389549,546.2220952963753,548.2650825701103,1 45786U 20038BJ  25359.73828527  .00001591  00000+0  12572-3 0  9994,2 45786  53.0556 168.5992 0001475  89.1386 270.9772 15.06389549305617
STARLINK-1522,46027,53.0572,0.0001217,15.06402991,546.3595771653481,548.0452047731096,1 46027U 20055A   25359.65256801  .00003245  00000+0  23664-3 0  9995,2 46027  53.0572  98.9820 0001217  95.4407 264.6720 15.06402991297720
STARLINK-1523,46028,53.0551,0.0002349,15.06384735,545.6315679936397,548.8851187259506,1 46028U 20055B   25359.66733332 -.00000202  00000+0  53543-5 0  9998,2 46028  53.0551  98.9196 0002349 116.4428 243.6802 15.06384735297743
STARLINK-1526,46029,53.0571,0.0001622,15.06388579,546.1232646657718,548.3698590932445,1 46029U 20055C   25359.65995723 -.00001109  00000+0 -55556-4 0  9995,2 46029  53.0571  98.9493 0001622  94.8995 265.2179 15.06388579297733
STARLINK-1555,46032,53.0548,0.0001258,15.06402077,546.3339841919515,548.0764002875185,1 46032U 20055F   25359.57886347  .00002012  00000+0  15394-3 0  9998,2 46032  53.0548  99.3136 0001258  79.6530 280.4600 15.06402077297728
STARLINK-1556,46033,53.0552,0.000126,15.06386846,546.3792743490776,548.1244723451609,1 46033U 20055G   25359.69312909  .00002617  00000+0  19460-3 0  9999,2 46033  53.0552  98.8002 0001260  93.7263 266.3870 15.06386846297719
STARLINK-1557,46034,53.0561,0.0001343,15.06406556,546.2613932025624,548.1215364282116,1 46034U 20055H   25359.56411050 -.00000113  00000+0  11294-4 0  9991,2 46034  53.0561  99.3790 0001343  96.1759 263.9383 15.06406556297699
STARLINK-1558,46035,53.0543,0.0001231,15.06403944,546.3469612532117,548.051979092168,1 46035U 20055J   25359.70417750 -.00001321  00000+0 -69807-4 0  9997,2 46035  53.0543  98.7539 0001231  91.8024 268.3106 15.06403944297743
STARLINK-1560,46036,53.0547,0.000128,15.06403554,546.3142222403831,548.087108682741,1 46036U 20055K   25359.55673727 -.00000092  00000+0  12746-4 0  9992,2 46036  53.0547  99.4163 0001280 100.3944 259.7189 15.06403554297720
STARLINK-1567,46038,53.0545,0.0001253,15.0638498,546.3898405150667,548.1253443999367,1 46038U 20055M   25359.50147300  .00001672  00000+0  13115-3 0  9996,2 46038  53.0545  99.6626 0001253 104.7215 255.3913 15.06384980297701
STARLINK-1569,46039,53.0535,0.0001269,15.06393607,546.3523224133678,548.1099808502522,1 46039U 20055N   25359.57517851 -.00001786  00000+0 -10103-3 0  9998,2 46039  53.0535  99.3315 0001269  91.0912 269.0223 15.06393607297715
STARLINK-1582,46043,53.0558,0.0001366,15.06389562,546.2975421066494,548.1895560726607,1 46043U 20055S   25359.71525095  .00001039  00000+0  88680-4 0  9993,2 46043  53.0558  98.7013 0001366  87.0312 273.0834 15.06389562297730
STARLINK-1591,46045,53.0557,0.000114,15.06482546,546.1691169932628,547.7480387850201,1 46045U 20055U   25359.54197772 -.00019305  00000+0 -12778-2 0  9993,2 46045  53.0557  99.4794 0001140 124.4774 235.6323 15.06482546297691
STARLINK-1524,46047,53.0558,0.0001242,15.06402311,546.3443476539733,548.0646024763792,1 46047U 20055W   25359.56135287 -.00003508  00000+0 -21675-3 0  9995,2 46047  53.0558  89.3918 0001242  86.2879 273.8252 15.06402311297859
STARLINK-1527,46048,53.0553,0.0001322,15.0639021,546.3260279947262,548.1570980867937,1 46048U 20055X   25359.55767870  .00000595  00000+0  58844-4 0  9994,2 46048  53.0553  89.4086 0001322  90.6257 269.4884 15.06390210297834
STARLINK-1540,46051,53.0573,0.0001379,15.06396828,546.2662727717161,548.1762865852515,1 46051U 20055AA  25359.52449832 -.00000389  00000+0 -72116-5 0  9992,2 46051  53.0573  89.5585 0001379 113.2729 246.8406 15.06396828297866
STARLINK-1541,46052,53.0575,0.0001533,15.0639964,546.1510051835721,548.2743173897234,1 46052U 20055AB  25359.64244558  .00001490  00000+0  11893-3 0  9999,2 46052  53.0575  89.0286 0001533  86.4369 273.6796 15.06399640297848
STARLINK-1543,46053,53.0553,0.0001394,15.06401683,546.2410069205453,548.171792660406,1 46053U 20055AC  25359.51343781  .00000734  00000+0  68164-4 0  9998,2 46053  53.0553  89.6074 0001394  96.5717 263.5431 15.06401683297856
STARLINK-1548,46054,53.0574,0.0001174,15.06403407,546.3880812988382,548.0141506884738,1 46054U 20055AD  25359.65351200  .00002276  00000+0  17163-3 0  9994,2 46054  53.0574  88.9774 0001174 129.6512 230.4580 15.06403407297872
STARLINK-1554,46055,53.0548,9.03e-05,15.06398582,546.590544540235,547.8412632746813,1 46055U 20055AE  25359.63877564  .00007025  00000+0  49002-3 0  9993,2 46055  53.0548  89.0442 0000903 105.1380 254.9709 15.06398582297870
STARLINK-1564,46058,53.0585,0.0001398,15.06404228,546.2304378406834,548.1667616743753,1 46058U 20055AH  25359.45082640  .00002604  00000+0  19365-3 0  9996,2 46058  53.0585  90.3540 0001398  95.6301 264.4848 15.06404228297834
STARLINK-1570,46059,53.0557,0.0001028,15.06389829,546.5308017274574,547.9546598001025,1 46059U 20055AJ  25359.61295755 -.00000702  00000+0 -28251-4 0  9992,2 46059  53.0557  89.1637 0001028  87.0965 273.0142 15.06389829297829
STARLINK-1572,46060,53.056,0.0001704,15.0639489,546.0471373335895,548.4073014595597,1 46060U 20055AK  25359.67561904 -.00000239  00000+0  28267-5 0  9994,2 46060  53.0560  88.8804 0001704 103.7240 256.3938 15.06394890297843
